AXVV5WNGD_0032
HFDTEDATE:210626,01
HFTZNTIMEZONE:0.00
HFPLTPILOTINCHARGE:Quentin
HFCM2CREW2:NIL
HFCIDCOMPETITIONID:NKN
HFGTYGLIDERTYPE:Ozone - Ultralite 5
HFGIDGLIDERID:NKN
HFFTYFRTYPE:Vector Vario
HFRFWFIRMWAREVERSION:2.01c
HFRHWHARDWAREVERSION:1.03
HFGPSRECEIVER:QUECTEL,LC76GPAMD,36,10000
HFDTMGPSDATUM:WGS84
HFALGALTGPS:GEO
HFPRSPRESSALTSENSOR:TDK,ICP20100,10000
HFALPALTPRESSURE:ISA
LXVVIGC+:1
B0606094515251N00644195EA0213502355
LXVVT+233H364I000W000000N+000D227-001+166G010X00
B0606104515251N00644195EA0213502355
LXVVT+233H366I000W000000N+000D230-001+167G010X00
B0606114515251N00644195EA0213502355
LXVVT+233H369I000W000000N+000D231-001+165G010X00
B0606124515251N00644195EA0213502355
LXVVT+233H373I000W000000N+000D217+001+172G010X00
B0606134515251N00644195EA0213502355
LXVVT+234H372I000W000000N+000D198-001+163G010X00
B0606144515251N00644195EA0213502355
LXVVT+234H371I000W000000N+000D156-001+175G010X00
B0606154515251N00644195EA0213502355
LXVVT+234H364I000W000000N+000D095-002+103G011X00
B0606164515251N00644195EA0213502355
LXVVT+234H359I000W000000N+000D336+002+172G011X00
B0606174515251N00644195EA0213502355
LXVVT+234H359I000W000000N+000D019+018-129G011X00
B0606184515251N00644195EA0213502355
LXVVT+234H357I000W000000N+000D150-062+111G010X00
B0606194515250N00644195EA0213502356
LXVVT+234H359I000W000000N+000D123-057+164G010X00
B0606204515250N00644195EA0213502356
LXVVT+234H364I000W000000N+000D139-061+160G010X00
B0606214515250N00644195EA0213502356
LXVVT+234H366I000W000000N+000D158-071+148G010X00
B0606224515250N00644195EA0213502356
LXVVT+234H368I000W000000N+000D120-069+169G010X00
B0606234515250N00644195EA0213502356
LXVVT+234H371I000W000000N+000D111-062+162G010X00
B0606244515250N00644195EA0213502356
LXVVT+234H374I000W000000N+000D132-066+145G010X00
B0606254515250N00644195EA0213502356
LXVVT+234H379I000W000000N+000D137-064+160G010X00
B0606264515250N00644195EA0213502356
LXVVT+234H383I000W000000N+000D139-066+158G010X00
B0606274515250N00644195EA0213502356
LXVVT+234H387I000W000000N+000D166-071+144G010X00
B0606284515250N00644195EA0213502356
LXVVT+234H388I000W000000N+000D291-066+063G009X00
B0606294515250N00644195EA0213502356
LXVVT+234H384I000W000000N+000D359-055-033G011X00
B0606304515250N00644195EA0213502356
LXVVT+234H380I000W000000N+000D334-047-024G011X00
B0606314515250N00644195EA0213502356
LXVVT+234H381I000W000000N+000D000-028-020G011X00
B0606324515250N00644195EA0213502356
LXVVT+234H382I000W000000N+000D075-014-022G010X00
B0606334515250N00644196EA0213502356
LXVVT+233H377I000W000000N+000D135+020-009G011X00
B0606344515250N00644196EA0213402356
LXVVT+232H369I000W000000N+000D173+032-012G011X00
B0606354515249N00644197EA0213402356
LXVVT+232H364I000W000000N+000D178+020+004G013X00
B0606364515249N00644198EA0213202356
LXVVT+231H367I000W000000N+000D060+014-005G009X00
B0606374515247N00644202EA0213002355
LXVVT+230H365I000W000000N+000D147+016-011G010X00
B0606384515245N00644206EA0212302353
LXVVT+225H361I087W000000N+000D110+004-018G013X00
B0606394515243N00644212EA0211702351
LXVVT+220H356I105W000000N-036D126+004-013G012X00
B0606404515240N00644218EA0211702348
LXVVT+219H351I107W300000N-014D120+001+001G011X99
B0606414515237N00644226EA0211902347
LXVVT+216H350I100W300000N-003D117+036+008G009X99
B0606424515235N00644233EA0212002346
LXVVT+212H351I091W301000N-002D115+011+004G009X99
B0606434515232N00644240EA0211902345
LXVVT+206H355I093W302000N-006D116-007-008G010X99
B0606444515229N00644247EA0211702343
LXVVT+203H358I096W314000N-010D117-010-010G010X99
B0606454515227N00644255EA0211502341
LXVVT+201H361I105W105000N+002D113-002+006G012X99
B0606464515224N00644262EA0211402339
LXVVT+200H363I104W110001N+010D113+002+028G011X99
B0606474515221N00644269EA0211202337
LXVVT+199H366I099W111001N-008D116-001+042G011X99
B0606484515217N00644274EA0210802335
LXVVT+199H366I108W118001N-020D153+001+037G013X99
B0606494515213N00644275EA0210502333
LXVVT+198H369I115W094001N-008D208+005+021G013X99
B0606504515212N00644274EA0210402332
LXVVT+197H371I109W080001N+009D233+010-001G012X99
B0606514515210N00644273EA0210402331
LXVVT+195H374I095W079001N+007D234+012-014G009X99
B0606524515208N00644271EA0210402331
LXVVT+191H379I088W071002N+000D229+005-003G009X99
B0606534515205N00644269EA0210302330
LXVVT+189H381I087W065003N-008D225-004+012G009X99
B0606544515203N00644266EA0210102329
LXVVT+191H382I089W061003N-013D221-010+009G009X99
B0606554515197N00644260EA0209902327
LXVVT+189H386I094W060003N-009D221-005-001G011X99
B0606564515191N00644255EA0209702325
LXVVT+190H388I106W059003N-002D220+003-006G012X99
B0606574515186N00644249EA0209602322
LXVVT+188H392I110W063003N+012D218+006-009G011X99
B0606584515177N00644240EA0209602320
LXVVT+187H395I093W059003N+021D214+009+002G010X99
B0606594515169N00644233EA0209702318
LXVVT+188H395I091W054004N+013D215+007+002G010X99
B0607004515162N00644226EA0209702317
LXVVT+187H396I086W051005N+006D211+000-003G009X99
B0607014515156N00644221EA0209602316
LXVVT+187H397I087W049005N-006D207-008-003G009X99
B0607024515150N00644216EA0209402314
LXVVT+184H400I093W048005N-008D199-009-007G011X99
B0607034515144N00644212EA0209202313
LXVVT+181H403I097W048005N-008D203-005-023G011X99
B0607044515138N00644210EA0209002311
LXVVT+176H407I103W052005N-010D015-009-040G011X99
B0607054515133N00644210EA0208502308
LXVVT+172H412I118W061005N-008D015-012-047G013X99
B0607064515129N00644213EA0207802303
LXVVT+175H412I133W068006N-014D015-002-043G016X99
B0607074515129N00644218EA0207302298
LXVVT+175H417I147W068006N-014D015+020-002G017X99
B0607084515130N00644224EA0207402296
LXVVT+176H418I133W068006N-014D015+018+053G012X99
B0607094515131N00644231EA0207002293
LXVVT+177H419I119W068006N-030D015-006+088G012X99
B0607104515130N00644237EA0205902289
LXVVT+176H420I140W074007N-030D015-013+064G019X99
B0607114515126N00644240EA0205102283
LXVVT+175H420I151W074007N-030D015+005+020G020X99
B0607124515121N00644240EA0205302280
LXVVT+176H420I126W074007N-039D015+022+015G013X99
B0607134515116N00644239EA0205802280
LXVVT+174H421I089W076006N-022D015+023+018G008X99
B0607144515112N00644237EA0206102280
LXVVT+176H423I065W078006N-017D015+009+010G006X99
B0607154515107N00644235EA0206002280
LXVVT+177H424I074W077006N+004D015-015+002G008X99
B0607164515103N00644232EA0205702279
LXVVT+176H425I090W081006N+016D015-021+000G010X99
B0607174515098N00644229EA0205402277
LXVVT+175H426I105W090005N+003D015-008-002G012X99
B0607184515093N00644225EA0205202274
LXVVT+175H426I107W095005N-006D015+010-003G013X99
B0607194515087N00644221EA0205202272
LXVVT+176H427I106W096005N+002D015+013+000G011X99
B0607204515082N00644217EA0205302271
LXVVT+174H430I096W092005N+008D015+006-003G010X99
B0607214515076N00644214EA0205202270
LXVVT+171H437I092W089005N+011D015-001-010G010X99
B0607224515070N00644211EA0205102269
LXVVT+169H439I094W086005N+015D015-005-021G011X99
B0607234515064N00644210EA0205002268
LXVVT+170H443I095W091006N+016D015-008-034G011X99
B0607244515060N00644211EA0204802266
LXVVT+167H449I108W095006N+005D015-006-031G012X99
B0607254515057N00644214EA0204502264
LXVVT+166H453I120W096007N+004D015-002-040G013X99
B0607264515056N00644219EA0204302262
LXVVT+168H450I119W093008N-009D015+003-039G013X99
B0607274515057N00644223EA0204102261
LXVVT+168H448I114W094008N-018D015+010-021G012X99
B0607284515060N00644226EA0204102259
LXVVT+170H445I101W097008N-009D015+007-003G010X99
B0607294515061N00644227EA0204002259
LXVVT+170H443I088W096008N-006D015+001+013G008X99
B0607304515062N00644227EA0203802259
LXVVT+168H443I091W100008N-006D015-003+008G010X99
B0607314515064N00644229EA0203602258
LXVVT+168H440I097W098008N-007D015-004-007G010X99
B0607324515069N00644232EA0203402256
LXVVT+168H438I099W095008N-007D015-001-010G011X99
B0607334515074N00644234EA0203302254
LXVVT+169H435I100W093008N-004D015+003+010G013X99
B0607344515079N00644238EA0203202253
LXVVT+170H437I098W092008N-004D015-007+046G009X99
B0607354515084N00644245EA0202702249
LXVVT+170H439I113W091009N-006D015-018+059G012X99
B0607364515086N00644251EA0201802244
LXVVT+172H438I140W094010N-007D015-011+048G018X99
B0607374515085N00644255EA0201302238
LXVVT+171H437I148W094010N-007D015+010+031G019X99
B0607384515081N00644257EA0201502234
LXVVT+170H436I131W094010N-021D015+026+019G014X99
B0607394515077N00644257EA0201902233
LXVVT+172H434I093W093010N-015D015+027+013G008X99
B0607404515076N00644257EA0202102234
LXVVT+172H432I057W093010N-010D015+010+015G007X99
B0607414515074N00644257EA0202002233
LXVVT+172H433I055W093010N+000D015-015+010G008X99
B0607424515072N00644256EA0201702233
LXVVT+172H434I082W093010N+019D015-024+005G011X99
B0607434515068N00644254EA0201402232
LXVVT+173H435I110W100009N+011D015-007+000G013X99
B0607444515063N00644251EA0201402230
LXVVT+173H440I114W099009N-003D015+010+005G011X99
B0607454515057N00644248EA0201502229
LXVVT+172H441I100W099009N-008D015+013+004G009X99
B0607464515055N00644246EA0201502229
LXVVT+172H443I090W093010N+001D015+006-002G009X99
B0607474515052N00644245EA0201402229
LXVVT+172H445I095W093010N+012D015-004-001G010X99
B0607484515049N00644242EA0201302229
LXVVT+172H445I095W095010N+014D015-005+001G010X99
B0607494515043N00644238EA0201202228
LXVVT+172H443I090W097010N+006D015-004+002G010X99
B0607504515036N00644233EA0201002227
LXVVT+171H440I090W098010N-002D015-002+003G010X99
B0607514515031N00644229EA0200802225
LXVVT+172H439I095W101009N-002D015-002+005G011X99
B0607524515022N00644222EA0200602223
LXVVT+171H438I096W104009N-005D015+000-003G011X99
B0607534515015N00644215EA0200402221
LXVVT+168H440I096W105009N-001D015+001-016G011X99
B0607544515008N00644210EA0200302219
LXVVT+166H442I100W103009N+004D015-001-028G012X99
B0607554515001N00644206EA0200202217
LXVVT+164H447I109W103009N+010D015-006-039G011X99
B0607564514995N00644206EA0200002215
LXVVT+163H454I116W104010N+005D015-010-045G012X99
B0607574514991N00644209EA0199602212
LXVVT+161H459I126W104010N-006D015-006-050G014X99
B0607584514990N00644213EA0199102209
LXVVT+163H457I133W104010N-008D015+009-035G016X99
B0607594514991N00644217EA0199102207
LXVVT+165H458I123W104010N-031D015+021-005G012X99
B0608004514994N00644221EA0199202206
LXVVT+166H457I099W105010N-014D015+014+019G009X99
B0608014514997N00644225EA0199202206
LXVVT+166H454I085W105010N-013D015+004+012G008X99
B0608024515001N00644230EA0199102205
LXVVT+166H452I079W110010N-004D015-002-013G010X99
B0608034515005N00644234EA0198902204
LXVVT+167H451I087W113009N+000D015-010-014G010X99
B0608044515008N00644239EA0198602202
LXVVT+167H451I096W115009N+004D015-007+004G011X99
B0608054515012N00644244EA0198502200
LXVVT+168H451I099W114009N+005D015-005+022G011X99
B0608064515015N00644251EA0198202197
LXVVT+168H452I100W113010N-004D015-006+039G011X99
B0608074515016N00644258EA0197702194
LXVVT+168H450I116W112008N-014D015-007+046G013X99
B0608084515014N00644263EA0197102190
LXVVT+169H447I131W111008N-015D015-001+042G016X99
B0608094515011N00644266EA0196802187
LXVVT+169H445I129W111008N-015D015+014+026G015X99
B0608104515006N00644267EA0197002185
LXVVT+170H444I111W111008N-018D015+022+014G011X99
B0608114515002N00644265EA0197202185
LXVVT+170H443I076W117008N-015D015+015+012G007X99
B0608124514998N00644264EA0197202185
LXVVT+170H441I058W118008N-015D015-004+006G007X99
B0608134514995N00644261EA0196802185
LXVVT+170H441I078W118008N-004D015-020+000G009X99
B0608144514991N00644258EA0196302183
LXVVT+170H440I102W119008N+004D015-016-007G012X99
B0608154514986N00644255EA0196002179
LXVVT+170H439I115W116008N-011D015+004-009G014X99
B0608164514980N00644251EA0195902177
LXVVT+171H441I125W112008N-010D015+017-002G013X99
B0608174514974N00644248EA0196102176
LXVVT+172H449I116W110008N+011D015+018+011G011X99
B0608184514968N00644245EA0196402176
LXVVT+171H451I085W103008N+009D015+011+012G008X99
B0608194514963N00644241EA0196402176
LXVVT+172H452I067W094008N+001D015+002-004G008X99
B0608204514958N00644238EA0196302176
LXVVT+171H449I069W095007N+003D015-011-012G009X99
B0608214514954N00644235EA0196002175
LXVVT+171H446I081W097007N+010D015-013-009G011X99
B0608224514949N00644232EA0195802173
LXVVT+172H445I095W102007N+008D015-004+000G012X99
B0608234514944N00644229EA0195702171
LXVVT+172H448I104W106007N-001D015+005+006G011X99
B0608244514939N00644226EA0195702169
LXVVT+171H451I100W107007N+000D015+008+003G010X99
B0608254514934N00644223EA0195702168
LXVVT+172H453I095W109007N+002D015+005-004G009X99
B0608264514929N00644220EA0195602167
LXVVT+173H452I091W110007N-001D015+001-004G009X99
B0608274514924N00644218EA0195502166
LXVVT+173H448I089W113007N+000D015-003+002G010X99
B0608284514919N00644216EA0195402165
LXVVT+172H446I091W115007N+003D015-005+001G010X99
B0608294514914N00644213EA0195202163
LXVVT+172H443I097W119008N+004D015-003+000G010X99
B0608304514909N00644211EA0195102162
LXVVT+171H442I097W120008N+001D015+001-001G011X99
B0608314514903N00644208EA0195002161
LXVVT+172H441I097W122008N-003D015+004-005G010X99
B0608324514898N00644205EA0194902160
LXVVT+171H440I094W123008N+000D015+003-002G010X99
B0608334514893N00644203EA0194902159
LXVVT+171H439I098W124008N+007D015+000-004G009X99
B0608344514888N00644201EA0194802158
LXVVT+172H438I094W126008N+003D015-001-002G010X99
B0608354514882N00644199EA0194602157
LXVVT+172H437I091W126008N-001D015-001+001G010X99
B0608364514877N00644197EA0194502156
LXVVT+170H436I095W127008N+000D015-002-004G010X99
B0608374514872N00644196EA0194302155
LXVVT+171H435I094W128008N-003D015+001-007G010X99
B0608384514866N00644195EA0194102153
LXVVT+171H434I095W128008N-007D015+000-005G010X99
B0608394514861N00644195EA0193902152
LXVVT+171H433I099W129009N-004D015-001-001G010X99
B0608404514856N00644195EA0193702150
LXVVT+171H433I100W130009N-002D015-002+007G011X99
B0608414514850N00644195EA0193602149
LXVVT+170H433I101W129009N-005D015+001+008G011X99
B0608424514844N00644195EA0193402147
LXVVT+171H433I104W129009N-004D015+003+001G011X99
B0608434514838N00644194EA0193302146
LXVVT+171H432I102W128009N-001D015+003-004G010X99
B0608444514832N00644193EA0193302145
LXVVT+171H431I101W127008N+001D015+001-002G010X99
B0608454514826N00644192EA0193202144
LXVVT+171H431I094W126008N+002D015+000+003G010X99
B0608464514821N00644191EA0193102143
LXVVT+170H431I093W123008N-002D015+000+000G009X99
B0608474514815N00644190EA0192902141
LXVVT+170H431I091W122008N-007D015-001-007G010X99
B0608484514809N00644189EA0192702140
LXVVT+170H431I096W119008N-004D015-002-007G010X99
B0608494514803N00644189EA0192502138
LXVVT+170H431I099W118007N-004D015+000-001G010X99
B0608504514798N00644188EA0192402137
LXVVT+170H432I097W118007N-008D015+001+001G010X99
B0608514514792N00644188EA0192202135
LXVVT+170H433I095W117007N-006D015+002-003G011X99
B0608524514786N00644188EA0192102134
LXVVT+169H435I096W116007N-002D015+001-001G010X99
B0608534514781N00644188EA0192002132
LXVVT+170H434I096W116007N+000D015+000+006G011X99
B0608544514775N00644188EA0192002132
LXVVT+170H434I098W117007N+004D015+003+001G011X99
B0608554514769N00644187EA0192002131
LXVVT+171H435I095W115007N+003D015+003+006G009X99
B0608564514767N00644187EA0192002131
LXVVT+169H436I089W113007N-004D015-001+003G009X99
B0608574514765N00644187EA0191802131
LXVVT+168H437I084W113007N-006D015-004-007G009X99
B0608584514763N00644186EA0191502130
LXVVT+168H437I086W114007N-008D015-006-017G011X99
B0608594514757N00644186EA0191202129
LXVVT+167H438I097W115007N-012D015-007-033G010X99
B0609004514752N00644188EA0190802126
LXVVT+168H439I110W115007N-015D015-003-044G013X99
B0609014514748N00644190EA0190302123
LXVVT+167H440I124W114007N-025D015-001-040G015X99
B0609024514744N00644197EA0190002118
LXVVT+168H439I133W114007N-025D015+010-013G017X99
B0609034514743N00644204EA0190102116
LXVVT+169H438I110W114007N-025D015+011+046G011X99
B0609044514742N00644211EA0189802113
LXVVT+170H438I097W115007N-020D015-006+072G009X99
B0609054514740N00644218EA0188902109
LXVVT+170H439I126W115006N-054D015-010+055G014X99
B0609064514736N00644222EA0188102104
LXVVT+170H439I146W115006N-054D015+007+019G020X99
B0609074514731N00644223EA0188202101
LXVVT+169H438I135W115006N-038D015+022+007G014X99
B0609084514726N00644223EA0188602100
LXVVT+171H435I097W120006N-030D015+031+009G009X99
B0609094514721N00644223EA0188702099
LXVVT+171H435I067W124006N-024D015+014+014G007X99
B0609104514716N00644222EA0188502098
LXVVT+171H432I067W124006N-007D015-013+008G007X99
B0609114514712N00644220EA0188102096
LXVVT+171H432I086W127006N+005D015-024+002G009X99
B0609124514708N00644218EA0187702093
LXVVT+170H431I106W141006N-006D015-010-010G013X99
B0609134514703N00644216EA0187502090
LXVVT+170H434I118W154007N-013D015+002-036G013X99
B0609144514698N00644216EA0187202087
LXVVT+169H442I128W154007N-013D015-004-056G013X99
B0609154514693N00644219EA0186502083
LXVVT+168H446I139W152007N-012D015-007-056G016X99
B0609164514692N00644224EA0186002079
LXVVT+168H444I148W152007N-012D015+005-038G017X99
B0609174514693N00644229EA0186102075
LXVVT+169H441I137W152007N-012D015+020-002G013X99
B0609184514695N00644235EA0186302074
LXVVT+170H442I103W136006N-012D015+014+052G009X99
B0609194514697N00644241EA0186002072
LXVVT+171H444I100W134007N-031D015-007+067G009X99
B0609204514696N00644247EA0185102068
LXVVT+171H443I130W131008N-033D015-014+041G018X99
B0609214514694N00644251EA0184702063
LXVVT+171H442I143W131008N-033D015+006+016G018X99
B0609224514689N00644252EA0185002061
LXVVT+172H442I124W131008N-025D015+026+011G013X99
B0609234514685N00644253EA0185302061
LXVVT+172H441I087W131007N-018D015+030+015G008X99
B0609244514681N00644253EA0185402062
LXVVT+173H438I057W136008N-015D015+008+011G007X99
B0609254514677N00644252EA0185302061
LXVVT+173H436I060W136008N-003D015-017+000G008X99
B0609264514673N00644251EA0184902059
LXVVT+173H433I083W136008N+010D015-022-001G010X99
B0609274514669N00644249EA0184502057
LXVVT+173H429I103W145008N-002D015-008-003G012X99
B0609284514664N00644247EA0184302054
LXVVT+174H426I110W141008N-010D015+007-006G012X99
B0609294514658N00644245EA0184302052
LXVVT+174H425I105W139008N-007D015+011-002G011X99
B0609304514652N00644243EA0184202050
LXVVT+174H423I096W135007N-002D015+006+006G009X99
B0609314514647N00644242EA0184002048
LXVVT+174H422I091W131007N-002D015-001+003G009X99
B0609324514641N00644240EA0183802047
LXVVT+174H422I096W127007N+004D015-004-004G010X99
B0609334514635N00644239EA0183602045
LXVVT+174H421I101W125007N+006D015-003-009G011X99
B0609344514629N00644238EA0183502043
LXVVT+174H421I106W125007N+001D015+002-008G011X99
B0609354514623N00644237EA0183402041
LXVVT+175H422I101W125007N-001D015+004-005G010X99
B0609364514617N00644237EA0183402039
LXVVT+175H423I097W120006N+002D015+003-003G010X99
B0609374514612N00644238EA0183302038
LXVVT+175H424I091W118006N+003D015+005-001G010X99
B0609384514607N00644239EA0183302037
LXVVT+175H426I087W119006N+001D015+001-019G009X99
B0609394514602N00644241EA0183102036
LXVVT+175H427I091W119006N+000D015-005-025G010X99
B0609404514598N00644245EA0182802035
LXVVT+175H430I096W118007N+000D015-005-011G012X99
B0609414514595N00644249EA0182702033
LXVVT+176H432I103W117008N+005D015+000-004G011X99
B0609424514592N00644255EA0182702032
LXVVT+176H432I102W116008N+002D015+004+003G010X99
B0609434514590N00644261EA0182602031
LXVVT+175H431I097W116008N-002D015+006+009G010X99
B0609444514587N00644267EA0182502031
LXVVT+176H429I090W116008N-009D015+004+002G009X99
B0609454514584N00644273EA0182402030
LXVVT+176H428I085W115009N-007D015-002-007G009X99
B0609464514582N00644278EA0182102028
LXVVT+175H428I087W115008N-006D015-006-004G010X99
B0609474514579N00644284EA0181802026
LXVVT+175H427I100W116008N-003D015-004+004G012X99
B0609484514576N00644290EA0181602024
LXVVT+176H426I102W116008N+001D015+000+013G011X99
B0609494514573N00644296EA0181502023
LXVVT+176H424I095W116009N-007D015+004+013G010X99
B0609504514569N00644301EA0181402021
LXVVT+176H424I095W113008N-012D015+007-008G010X99
B0609514514564N00644305EA0181202019
LXVVT+176H423I091W112008N-009D015+000-015G010X99
B0609524514560N00644310EA0181002018
LXVVT+177H423I089W112008N-009D015-003-005G010X99
B0609534514556N00644315EA0180802016
LXVVT+177H423I094W111008N-002D015-003+008G010X99
B0609544514552N00644320EA0180602014
LXVVT+177H423I100W110007N+003D015-002+014G012X99
B0609554514547N00644324EA0180502012
LXVVT+178H423I095W109007N-003D015+003+023G011X99
B0609564514541N00644327EA0180402011
LXVVT+178H423I095W100007N-009D015+004+021G011X99
B0609574514536N00644328EA0180202009
LXVVT+178H422I095W093007N-008D015+004+011G011X99
B0609584514530N00644328EA0180002007
LXVVT+178H422I091W089008N-005D015+001+003G010X99
B0609594514525N00644326EA0179902006
LXVVT+178H421I090W087008N-005D015-001+000G009X99
B0610004514520N00644324EA0179702004
LXVVT+178H421I091W085008N-006D015-002+004G010X99
B0610014514514N00644321EA0179502002
LXVVT+178H420I093W084008N-007D015-003+006G010X99
B0610024514509N00644316EA0179202000
LXVVT+178H419I097W082009N-006D015-003+002G011X99
B0610034514504N00644312EA0179001998
LXVVT+179H417I100W082009N-006D015+000-001G010X99
B0610044514499N00644306EA0178801995
LXVVT+179H415I102W081009N-007D015+001-001G011X99
B0610054514494N00644300EA0178601993
LXVVT+179H413I100W080010N-006D015+004+001G011X99
B0610064514489N00644294EA0178501991
LXVVT+180H411I094W078010N-007D015+003+006G010X99
B0610074514485N00644287EA0178301989
LXVVT+179H411I094W077011N-004D015+001+009G010X99
B0610084514481N00644280EA0178301987
LXVVT+179H410I096W077011N+008D015+000+001G012X99
B0610094514477N00644273EA0178301986
LXVVT+180H410I097W077011N+014D015+002+004G011X99
B0610104514474N00644265EA0178301985
LXVVT+180H409I087W077011N+002D015+004+013G009X99
B0610114514472N00644257EA0178301985
LXVVT+179H408I084W077012N-008D015+000-002G008X99
B0610124514470N00644249EA0178101984
LXVVT+179H407I085W078012N-004D015-001-007G010X99
B0610134514469N00644241EA0177901983
LXVVT+179H405I083W078012N-005D015+000+007G010X99
B0610144514468N00644233EA0177801982
LXVVT+179H404I090W078012N-010D015+003-005G010X99
B0610154514467N00644224EA0177701981
LXVVT+179H403I094W080012N-006D015+001-023G009X99
B0610164514466N00644216EA0177401979
LXVVT+179H402I099W081013N-009D015-004-029G010X99
B0610174514464N00644207EA0177101977
LXVVT+179H400I104W081012N-017D015-002-024G012X99
B0610184514461N00644200EA0176801975
LXVVT+179H398I102W082012N-016D015+001-012G011X99
B0610194514458N00644195EA0176601972
LXVVT+179H395I101W083012N-013D015+003-005G011X99
B0610204514453N00644190EA0176501970
LXVVT+179H395I100W083012N-010D015+003+001G010X99
B0610214514448N00644185EA0176301967
LXVVT+179H393I096W081012N-010D015+000+000G010X99
B0610224514443N00644181EA0176101965
LXVVT+179H391I097W080012N-008D015-001-004G010X99
B0610234514438N00644178EA0175901962
LXVVT+180H389I101W081012N-005D015-001-004G010X99
B0610244514432N00644174EA0175701960
LXVVT+180H388I102W083012N-006D015+000-002G010X99
B0610254514427N00644171EA0175601957
LXVVT+180H386I101W084012N-008D015+002-001G010X99
B0610264514421N00644168EA0175401955
LXVVT+181H385I099W084012N-010D015+001-001G010X99
B0610274514415N00644165EA0175201953
LXVVT+181H384I098W084012N-012D015+001-001G010X99
B0610284514410N00644163EA0175101951
LXVVT+180H383I094W084012N-015D015+001-009G010X99
B0610294514404N00644161EA0174901949
LXVVT+180H383I093W082012N-014D015-001-021G010X99
B0610304514398N00644160EA0174701947
LXVVT+180H384I094W083012N-010D015-001-020G011X99
B0610314514393N00644160EA0174501945
LXVVT+180H385I096W082012N-008D015+000-011G011X99
B0610324514388N00644162EA0174401943
LXVVT+180H386I098W082012N-009D015+000-008G010X99
B0610334514383N00644165EA0174201942
LXVVT+180H386I098W081011N-008D015+001-002G010X99
B0610344514379N00644169EA0174001940
LXVVT+180H385I098W080011N-009D015+000+004G010X99
B0610354514374N00644174EA0173801939
LXVVT+181H383I098W078011N-010D015-001+002G010X99
B0610364514370N00644178EA0173601937
LXVVT+180H382I102W077011N-009D015-001-003G011X99
B0610374514365N00644183EA0173401935
LXVVT+180H382I105W077011N-005D015+000-008G011X99
B0610384514360N00644188EA0173301933
LXVVT+180H382I102W077011N-005D015+002-010G011X99
B0610394514356N00644194EA0173101932
LXVVT+180H383I097W077011N-008D015+002-012G010X99
B0610404514353N00644200EA0173001931
LXVVT+180H385I094W077010N-006D015+001-010G010X99
B0610414514350N00644206EA0172701929
LXVVT+180H388I091W077010N-009D015-003-007G009X99
B0610424514348N00644212EA0172501927
LXVVT+181H390I097W076010N-013D015-002-002G010X99
B0610434514346N00644219EA0172201925
LXVVT+181H391I103W076010N-012D015-002+005G010X99
B0610444514345N00644227EA0171901922
LXVVT+181H393I104W076010N-013D015+001+005G011X99
B0610454514343N00644234EA0171701920
LXVVT+182H393I103W077010N-014D015+003+001G010X99
B0610464514342N00644241EA0171601918
LXVVT+182H394I104W077011N-012D015+002-003G010X99
B0610474514340N00644249EA0171301915
LXVVT+183H394I095W077011N-013D015+001+000G010X99
B0610484514339N00644256EA0171101913
LXVVT+183H394I095W076010N-016D015-001-002G010X99
B0610494514337N00644263EA0170801910
LXVVT+183H394I099W076010N-012D015-003-003G010X99
B0610504514336N00644271EA0170501907
LXVVT+183H395I100W076011N-015D015-002+000G010X99
B0610514514334N00644278EA0170201904
LXVVT+183H395I099W076011N-023D015+002+000G010X99
B0610524514333N00644286EA0169901901
LXVVT+184H395I095W076010N-023D015+003-002G010X99
B0610534514331N00644294EA0169701899
LXVVT+184H394I097W075010N-017D015+000-003G010X99
B0610544514330N00644302EA0169401896
LXVVT+184H395I102W074009N-008D015-003-004G011X99
B0610554514329N00644310EA0169201893
LXVVT+185H396I110W074009N+000D015+001-006G012X99
B0610564514329N00644319EA0169201891
LXVVT+185H397I107W074008N-001D015+007-006G011X99
B0610574514329N00644321EA0169201891
LXVVT+185H398I096W074008N-003D015+008-005G010X99
B0610584514329N00644324EA0169201890
LXVVT+186H399I089W075007N+003D015+003+002G009X99
B0610594514329N00644328EA0169101890
LXVVT+186H400I083W076007N+006D015-003+011G009X99
B0611004514330N00644332EA0169001890
LXVVT+186H401I084W077007N+002D015-006+013G010X99
B0611014514330N00644340EA0168801888
LXVVT+187H401I093W078007N+003D015-004+013G011X99
B0611024514330N00644348EA0168601887
LXVVT+187H401I100W077007N+002D015-001+017G011X99
B0611034514329N00644356EA0168501885
LXVVT+187H400I101W080007N-001D015+002+019G011X99
B0611044514326N00644366EA0168401883
LXVVT+187H400I099W077007N-003D015+005+019G011X99
B0611054514322N00644374EA0168301882
LXVVT+188H400I093W076007N-004D015+003+016G010X99
B0611064514318N00644379EA0168201881
LXVVT+188H400I087W074007N-006D015+000+015G009X99
B0611074514313N00644382EA0168001879
LXVVT+188H400I088W069007N-010D015-003+008G009X99
B0611084514308N00644384EA0167801878
LXVVT+188H400I092W066007N-008D015-004-001G010X99
B0611094514303N00644384EA0167501876
LXVVT+188H401I097W064008N-010D015-002-004G011X99
B0611104514297N00644384EA0167301874
LXVVT+188H400I104W062008N-007D015+002-003G011X99
B0611114514291N00644385EA0167201872
LXVVT+188H400I104W063008N-002D015+004-002G011X99
B0611124514285N00644385EA0167101871
LXVVT+189H399I095W064008N-004D015+004+002G010X99
B0611134514279N00644386EA0167001869
LXVVT+189H397I088W061008N-007D015+001+004G009X99
B0611144514273N00644387EA0166801868
LXVVT+189H395I091W059008N-003D015-003+000G010X99
B0611154514267N00644388EA0166501866
LXVVT+190H393I094W057008N-003D015-004-002G010X99
B0611164514261N00644389EA0166301864
LXVVT+190H392I097W056008N-006D015-001-002G010X99
B0611174514255N00644390EA0166101862
LXVVT+190H391I100W057008N-008D015+001+001G011X99
B0611184514249N00644391EA0165901860
LXVVT+190H391I098W055008N-009D015+002-001G010X99
B0611194514243N00644393EA0165701858
LXVVT+190H391I094W053008N-010D015+002-003G010X99
B0611204514237N00644395EA0165501856
LXVVT+190H391I092W051008N-011D015+001-005G010X99
B0611214514231N00644397EA0165201853
LXVVT+190H391I097W047008N-008D015+001-004G010X99
B0611224514225N00644400EA0165101851
LXVVT+190H391I096W046009N-007D015+000+000G010X99
B0611234514220N00644404EA0164901849
LXVVT+190H392I092W045009N-009D015+000-001G010X99
B0611244514215N00644407EA0164701846
LXVVT+191H391I094W044009N-009D015-001-001G010X99
B0611254514209N00644411EA0164401844
LXVVT+191H390I095W044009N-007D015-002+001G010X99
B0611264514204N00644415EA0164201841
LXVVT+191H389I099W043009N-009D015+001+000G011X99
B0611274514199N00644419EA0164001839
LXVVT+191H388I095W043009N-014D015+003+004G010X99
B0611284514194N00644424EA0163801837
LXVVT+191H388I094W041009N-013D015+001+009G010X99
B0611294514189N00644428EA0163701835
LXVVT+191H388I096W040009N-006D015+000+003G010X99
B0611304514183N00644432EA0163501833
LXVVT+192H386I098W040009N+000D015-001+000G010X99
B0611314514178N00644435EA0163401831
LXVVT+192H385I095W039009N-003D015+002+000G011X99
B0611324514172N00644439EA0163301830
LXVVT+192H385I095W037009N-004D015+003-002G010X99
B0611334514167N00644442EA0163201828
LXVVT+192H386I093W036009N-004D015+002-002G010X99
B0611344514161N00644446EA0163101827
LXVVT+192H386I087W035009N-008D015+001-002G010X99
B0611354514156N00644450EA0162901825
LXVVT+192H386I088W033009N-010D015+000-008G010X99
B0611364514152N00644454EA0162601823
LXVVT+192H387I094W033009N-004D015-004-004G011X99
B0611374514147N00644459EA0162401821
LXVVT+192H387I103W034009N+003D015-005+004G011X99
B0611384514143N00644464EA0162301819
LXVVT+192H387I103W038009N+005D015-001+021G012X99
B0611394514138N00644469EA0162101817
LXVVT+192H388I097W039009N-004D015-006+049G009X99
B0611404514133N00644470EA0161501814
LXVVT+193H388I115W039010N-021D015-012+054G013X99
B0611414514128N00644468EA0160701809
LXVVT+193H388I141W037009N-021D015-012+050G017X99
B0611424514126N00644463EA0160001804
LXVVT+194H386I155W037009N-021D015-010+065G019X99
B0611434514127N00644459EA0159301798
LXVVT+194H385I162W037009N-021D015-012+075G018X99
B0611444514130N00644460EA0158401791
LXVVT+195H384I174W037009N-021D015-015+077G021X99
B0611454514130N00644463EA0157401782
LXVVT+195H382I188W037009N-021D015-012+067G025X99
B0611464514127N00644465EA0156701773
LXVVT+195H381I195W037009N-021D015+001+058G025X99
B0611474514123N00644462EA0156201766
LXVVT+196H379I188W037009N-021D015+012+066G024X99
B0611484514122N00644456EA0155201758
LXVVT+197H377I189W037009N-021D015+008+077G024X99
B0611494514125N00644454EA0154001750
LXVVT+197H376I193W037009N-021D015+012+058G027X99
B0611504514128N00644457EA0153801744
LXVVT+198H375I169W037009N-021D015+035+024G020X99
B0611514514131N00644462EA0154501742
LXVVT+198H376I115W037009N-034D015+034+020G008X99
B0611524514132N00644467EA0155001742
LXVVT+199H374I065W046011N-034D015+025+006G006X99
B0611534514133N00644471EA0155101742
LXVVT+199H372I048W046011N-034D015-007-001G006X99
B0611544514134N00644476EA0154701740
LXVVT+199H372I077W046011N-039D015-033+000G008X99
B0611554514134N00644481EA0154201736
LXVVT+199H373I111W047011N-033D015-020+005G012X99
B0611564514135N00644488EA0153801733
LXVVT+199H373I128W048011N-021D015+005+009G014X99
B0611574514135N00644496EA0153801730
LXVVT+199H373I126W045011N-013D015+019+013G013X99
B0611584514134N00644504EA0153801728
LXVVT+199H372I108W044011N-005D015+017+009G010X99
B0611594514134N00644506EA0153801727
LXVVT+199H371I091W045011N+000D015+009-001G009X99
B0612004514134N00644509EA0153601727
LXVVT+200H370I082W044010N+000D015-003-006G008X99
B0612014514133N00644513EA0153301726
LXVVT+199H371I091W042010N+004D015-011+000G010X99
B0612024514132N00644521EA0153101724
LXVVT+199H369I102W043010N+011D015-007+010G012X99
B0612034514130N00644529EA0152901722
LXVVT+200H368I102W044011N+011D015-007+042G010X99
B0612044514128N00644535EA0152301719
LXVVT+200H367I116W044011N-012D015-015+064G012X99
B0612054514123N00644541EA0151201713
LXVVT+200H365I149W047010N-015D015-010+055G020X99
B0612064514118N00644542EA0150401706
LXVVT+201H364I154W047010N-015D015+024+010G020X99
B0612074514114N00644538EA0150501702
LXVVT+200H364I133W047010N-015D015+034-070G012X99
B0612084514110N00644534EA0150001698
LXVVT+200H364I132W047009N-015D015+001-098G014X99
B0612094514105N00644533EA0148401690
LXVVT+200H364I166W059009N-015D015-020-076G022X99
B0612104514104N00644534EA0146901680
LXVVT+201H367I196W059009N-015D015-027-059G027X99
B0612114514107N00644534EA0146501670
LXVVT+200H377I197W059009N-015D015-004-065G025X99
B0612124514110N00644530EA0146701662
LXVVT+200H389I183W059009N-015D015+024-046G024X99
B0612134514110N00644523EA0147101658
LXVVT+201H396I153W059009N-015D015+043-016G017X99
B0612144514109N00644517EA0147601656
LXVVT+201H402I107W059009N+033D015+032+004G009X99
B0612154514106N00644512EA0147801656
LXVVT+202H404I063W059009N+033D015+012+017G006X99
B0612164514103N00644508EA0147501655
LXVVT+201H403I058W059009N+033D015-014+011G006X99
B0612174514100N00644505EA0146801652
LXVVT+201H404I087W061008N+012D015-028-002G010X99
B0612184514096N00644501EA0146201649
LXVVT+201H407I118W064007N+008D015-012-007G014X99
B0612194514091N00644498EA0145901645
LXVVT+200H413I122W064007N+008D015+014-011G015X99
B0612204514086N00644496EA0146001642
LXVVT+199H421I110W058007N+001D015+018-044G011X99
B0612214514080N00644496EA0145701640
LXVVT+199H427I106W056007N-013D015-002-060G011X99
B0612224514076N00644499EA0144901636
LXVVT+199H432I124W058008N-012D015-013-053G015X99
B0612234514076N00644503EA0144201631
LXVVT+198H436I145W058008N-012D015-009-044G018X99
B0612244514078N00644506EA0143901626
LXVVT+198H439I145W058008N-012D015+016-014G017X99
B0612254514082N00644507EA0144101624
LXVVT+199H441I118W058008N-015D015+022+011G010X99
B0612264514087N00644509EA0144301623
LXVVT+199H443I091W068007N-013D015+018+014G009X99
B0612274514091N00644511EA0144301623
LXVVT+199H445I080W068007N+000D015+006-010G009X99
B0612284514095N00644513EA0144101622
LXVVT+198H447I080W068007N+009D015-009-016G009X99
B0612294514100N00644515EA0143901620
LXVVT+198H449I088W069007N+009D015-012-001G010X99
B0612304514105N00644518EA0143601618
LXVVT+199H451I101W067007N+004D015-006+010G011X99
B0612314514110N00644522EA0143301616
LXVVT+200H452I111W070007N+003D015+002+006G012X99
B0612324514115N00644526EA0143301614
LXVVT+199H453I108W071007N+005D015+009+002G012X99
B0612334514119N00644531EA0143301613
LXVVT+199H456I092W072006N+004D015+007+015G009X99
B0612344514123N00644537EA0143101612
LXVVT+199H456I085W078005N-002D015+002+017G009X99
B0612354514125N00644543EA0142901610
LXVVT+199H456I086W076005N+000D015-003+012G010X99
B0612364514127N00644550EA0142701609
LXVVT+200H456I091W075004N+003D015-004+008G011X99
B0612374514127N00644557EA0142501607
LXVVT+200H456I097W075004N+000D015-002+009G010X99
B0612384514126N00644564EA0142301606
LXVVT+200H456I100W072004N-003D015+002+005G010X99
B0612394514125N00644571EA0142101604
LXVVT+200H454I096W071004N-007D015+003+000G010X99
B0612404514122N00644578EA0142001603
LXVVT+200H453I091W066004N-003D015+004-005G010X99
B0612414514120N00644585EA0141901601
LXVVT+200H452I090W058003N+001D015+001-009G009X99
B0612424514118N00644593EA0141701600
LXVVT+201H450I088W050003N+000D015-001-003G010X99
B0612434514116N00644600EA0141601598
LXVVT+201H446I087W041003N+003D015-003+011G010X99
B0612444514114N00644607EA0141401597
LXVVT+201H441I087W031003N+002D015-010+030G010X99
B0612454514111N00644613EA0141001594
LXVVT+201H436I102W029003N-007D015-012+037G012X99
B0612464514107N00644616EA0140401591
LXVVT+201H433I119W028003N-015D015-005+032G013X99
B0612474514102N00644616EA0140101587
LXVVT+201H432I126W030004N-020D015+006+027G014X99
B0612484514101N00644615EA0140001587
LXVVT+201H434I117W034004N-022D015+015+006G012X99
B0612494514100N00644613EA0140101586
LXVVT+201H436I101W038005N-013D015+012-017G009X99
B0612504514098N00644611EA0140001585
LXVVT+201H437I091W037005N-005D015+004-020G010X99
B0612514514093N00644607EA0139901583
LXVVT+201H439I089W038004N+002D015-002-013G010X99
B0612524514088N00644603EA0139701581
LXVVT+201H442I093W038004N+005D015-003-015G011X99
B0612534514083N00644601EA0139601579
LXVVT+201H442I094W040004N+000D015+004-019G011X99
B0612544514076N00644600EA0139401576
LXVVT+201H441I087W043004N-010D015+006-027G011X99
B0612554514070N00644600EA0139301574
LXVVT+201H440I051W043004N-010D015+029-004G015X99
B0612564514066N00644602EA0139201571
LXVVT+201H442I035W043004N-008D015+042-004G011X99
B0612574514062N00644604EA0139001570
LXVVT+202H444I053W043004N-013D015+063-011G017X99
B0612584514060N00644607EA0138801568
LXVVT+202H445I052W043004N-014D015+025-022G014X99
B0612594514059N00644610EA0138701567
LXVVT+202H448I043W043004N-016D015-020-034G015X99
B0613004514058N00644613EA0138701567
LXVVT+202H452I030W043004N-017D015-031-029G015X99
B0613014514058N00644613EA0138701567
LXVVT+202H452I007W043004N-020D015-032-007G011X99
B0613024514057N00644614EA0138801567
LXVVT+202H452I005W043004N+008D015-003+003G010X99
B0613034514057N00644615EA0139101567
LXVVT+202H452I001W043004N+028D015-002+001G010X99
B0613044514057N00644615EA0139101567
LXVVT+202H452I005W043004N+019D015-006+012G010X99
B0613054514057N00644616EA0139001567
LXVVT+202H452I006W043004N+006D015+003+018G010X99
G5d59c1729d6064cd13e50a04fa2ce6ae5d6a2e3608136f2d67986c828be87223
G0175dca4c49dc37f4e1fe0d54e40c619e879f8a53fe671b7e73659e972e1abf1